[{"OBJECT_NAME":"STARLINK-34864","OBJECT_ID":"2025-189H","EPOCH":"2026-03-03T18:48:44.395488","MEAN_MOTION":15.30199031,"ECCENTRICITY":0.00014047,"INCLINATION":53.1575,"RA_OF_ASC_NODE":234.1008,"ARG_OF_PERICENTER":91.4867,"MEAN_ANOMALY":268.6294,"EPHEMERIS_TYPE":0,"CLASSIFICATION_TYPE":"U","NORAD_CAT_ID":65330,"ELEMENT_SET_NO":999,"REV_AT_EPOCH":3020,"BSTAR":0.0010776996,"MEAN_MOTION_DOT":0.00031695,"MEAN_MOTION_DDOT":0},{"OBJECT_NAME":"STARLINK-34918","OBJECT_ID":"2025-189J","EPOCH":"2026-03-03T18:44:12.296832","MEAN_MOTION":15.30187392,"ECCENTRICITY":0.00013788,"INCLINATION":53.1572,"RA_OF_ASC_NODE":234.0751,"ARG_OF_PERICENTER":140.7471,"MEAN_ANOMALY":219.363,"EPHEMERIS_TYPE":0,"CLASSIFICATION_TYPE":"U","NORAD_CAT_ID":65331,"ELEMENT_SET_NO":999,"REV_AT_EPOCH":3014,"BSTAR":0.0011545061,"MEAN_MOTION_DOT":0.00033977,"MEAN_MOTION_DDOT":0},{"OBJECT_NAME":"STARLINK-33890","OBJECT_ID":"2025-189K","EPOCH":"2026-03-03T18:45:41.773536","MEAN_MOTION":15.30209906,"ECCENTRICITY":9.861e-5,"INCLINATION":53.1575,"RA_OF_ASC_NODE":234.0789,"ARG_OF_PERICENTER":90.7795,"MEAN_ANOMALY":269.3319,"EPHEMERIS_TYPE":0,"CLASSIFICATION_TYPE":"U","NORAD_CAT_ID":65332,"ELEMENT_SET_NO":999,"REV_AT_EPOCH":2900,"BSTAR":0.0012905288,"MEAN_MOTION_DOT":0.0003807,"MEAN_MOTION_DDOT":0},{"OBJECT_NAME":"STARLINK-34602","OBJECT_ID":"2025-189L","EPOCH":"2026-03-03T18:32:00.759264","MEAN_MOTION":15.3017513,"ECCENTRICITY":0.0001177,"INCLINATION":53.1565,"RA_OF_ASC_NODE":234.0197,"ARG_OF_PERICENTER":60.6255,"MEAN_ANOMALY":299.4864,"EPHEMERIS_TYPE":0,"CLASSIFICATION_TYPE":"U","NORAD_CAT_ID":65333,"ELEMENT_SET_NO":999,"REV_AT_EPOCH":3020,"BSTAR":0.0012505,"MEAN_MOTION_DOT":0.00036832,"MEAN_MOTION_DDOT":0},{"OBJECT_NAME":"STARLINK-34878","OBJECT_ID":"2025-189M","EPOCH":"2026-03-03T17:04:02.582400","MEAN_MOTION":15.30202765,"ECCENTRICITY":0.00018117,"INCLINATION":53.1563,"RA_OF_ASC_NODE":234.3605,"ARG_OF_PERICENTER":157.0801,"MEAN_ANOMALY":203.0281,"EPHEMERIS_TYPE":0,"CLASSIFICATION_TYPE":"U","NORAD_CAT_ID":65334,"ELEMENT_SET_NO":999,"REV_AT_EPOCH":3019,"BSTAR":0.00054897362,"MEAN_MOTION_DOT":0.00015936,"MEAN_MOTION_DDOT":0},{"OBJECT_NAME":"STARLINK-34874","OBJECT_ID":"2025-189N","EPOCH":"2026-03-03T18:04:49.757952","MEAN_MOTION":15.30219732,"ECCENTRICITY":0.00010906,"INCLINATION":53.1584,"RA_OF_ASC_NODE":234.6123,"ARG_OF_PERICENTER":81.1999,"MEAN_ANOMALY":278.9125,"EPHEMERIS_TYPE":0,"CLASSIFICATION_TYPE":"U","NORAD_CAT_ID":65335,"ELEMENT_SET_NO":999,"REV_AT_EPOCH":3019,"BSTAR":0.00093728294,"MEAN_MOTION_DOT":0.0002752,"MEAN_MOTION_DDOT":0},{"OBJECT_NAME":"STARLINK-34835","OBJECT_ID":"2025-189P","EPOCH":"2026-03-03T18:09:23.483520","MEAN_MOTION":15.30210375,"ECCENTRICITY":9.616e-5,"INCLINATION":53.1583,"RA_OF_ASC_NODE":234.6394,"ARG_OF_PERICENTER":73.7369,"MEAN_ANOMALY":286.3737,"EPHEMERIS_TYPE":0,"CLASSIFICATION_TYPE":"U","NORAD_CAT_ID":65336,"ELEMENT_SET_NO":999,"REV_AT_EPOCH":3019,"BSTAR":0.0011153362,"MEAN_MOTION_DOT":0.0003283,"MEAN_MOTION_DDOT":0},{"OBJECT_NAME":"STARLINK-34854","OBJECT_ID":"2025-189Q","EPOCH":"2026-03-03T21:49:13.892448","MEAN_MOTION":15.30201659,"ECCENTRICITY":9.52e-5,"INCLINATION":53.1563,"RA_OF_ASC_NODE":233.4587,"ARG_OF_PERICENTER":73.3259,"MEAN_ANOMALY":286.7846,"EPHEMERIS_TYPE":0,"CLASSIFICATION_TYPE":"U","NORAD_CAT_ID":65337,"ELEMENT_SET_NO":999,"REV_AT_EPOCH":3016,"BSTAR":0.0003035,"MEAN_MOTION_DOT":8.641e-5,"MEAN_MOTION_DDOT":0},{"OBJECT_NAME":"STARLINK-34751","OBJECT_ID":"2025-189R","EPOCH":"2026-03-03T18:50:15.287424","MEAN_MOTION":15.30211033,"ECCENTRICITY":0.0001066,"INCLINATION":53.1578,"RA_OF_ASC_NODE":234.1047,"ARG_OF_PERICENTER":80.2368,"MEAN_ANOMALY":279.8753,"EPHEMERIS_TYPE":0,"CLASSIFICATION_TYPE":"U","NORAD_CAT_ID":65338,"ELEMENT_SET_NO":999,"REV_AT_EPOCH":3020,"BSTAR":0.00072413,"MEAN_MOTION_DOT":0.00021156,"MEAN_MOTION_DDOT":0},{"OBJECT_NAME":"STARLINK-34777","OBJECT_ID":"2025-189S","EPOCH":"2026-03-03T17:37:28.187328","MEAN_MOTION":15.3018162,"ECCENTRICITY":8.467e-5,"INCLINATION":53.1588,"RA_OF_ASC_NODE":234.4993,"ARG_OF_PERICENTER":87.5745,"MEAN_ANOMALY":272.5352,"EPHEMERIS_TYPE":0,"CLASSIFICATION_TYPE":"U","NORAD_CAT_ID":65339,"ELEMENT_SET_NO":999,"REV_AT_EPOCH":3020,"BSTAR":0.000896037,"MEAN_MOTION_DOT":0.00026258,"MEAN_MOTION_DDOT":0},{"OBJECT_NAME":"STARLINK-35020","OBJECT_ID":"2025-189T","EPOCH":"2026-03-03T16:50:22.173792","MEAN_MOTION":15.30217667,"ECCENTRICITY":8.209e-5,"INCLINATION":53.1576,"RA_OF_ASC_NODE":234.2936,"ARG_OF_PERICENTER":105.2458,"MEAN_ANOMALY":254.8634,"EPHEMERIS_TYPE":0,"CLASSIFICATION_TYPE":"U","NORAD_CAT_ID":65340,"ELEMENT_SET_NO":999,"REV_AT_EPOCH":3014,"BSTAR":0.0010962207,"MEAN_MOTION_DOT":0.00032267,"MEAN_MOTION_DDOT":0},{"OBJECT_NAME":"STARLINK-35016","OBJECT_ID":"2025-189U","EPOCH":"2026-03-03T17:34:26.283360","MEAN_MOTION":15.30205069,"ECCENTRICITY":0.00010785,"INCLINATION":53.1584,"RA_OF_ASC_NODE":234.4825,"ARG_OF_PERICENTER":62.2121,"MEAN_ANOMALY":297.8989,"EPHEMERIS_TYPE":0,"CLASSIFICATION_TYPE":"U","NORAD_CAT_ID":65341,"ELEMENT_SET_NO":999,"REV_AT_EPOCH":3014,"BSTAR":0.0012615511,"MEAN_MOTION_DOT":0.00037197,"MEAN_MOTION_DDOT":0},{"OBJECT_NAME":"STARLINK-35092","OBJECT_ID":"2025-189V","EPOCH":"2026-03-04T04:00:03.000096","MEAN_MOTION":15.30306693,"ECCENTRICITY":0.0001222,"INCLINATION":53.1566,"RA_OF_ASC_NODE":232.1827,"ARG_OF_PERICENTER":102.9759,"MEAN_ANOMALY":277.1538,"EPHEMERIS_TYPE":0,"CLASSIFICATION_TYPE":"U","NORAD_CAT_ID":65342,"ELEMENT_SET_NO":999,"REV_AT_EPOCH":565,"BSTAR":-0.0056443,"MEAN_MOTION_DOT":-0.00164441,"MEAN_MOTION_DDOT":0},{"OBJECT_NAME":"STARLINK-34838","OBJECT_ID":"2025-189W","EPOCH":"2026-03-03T21:19:00.885216","MEAN_MOTION":15.30217887,"ECCENTRICITY":9.88e-5,"INCLINATION":53.1579,"RA_OF_ASC_NODE":234.032,"ARG_OF_PERICENTER":59.0784,"MEAN_ANOMALY":301.0314,"EPHEMERIS_TYPE":0,"CLASSIFICATION_TYPE":"U","NORAD_CAT_ID":65343,"ELEMENT_SET_NO":999,"REV_AT_EPOCH":3022,"BSTAR":0.0017017,"MEAN_MOTION_DOT":0.0005041,"MEAN_MOTION_DDOT":0},{"OBJECT_NAME":"STARLINK-35088","OBJECT_ID":"2025-189X","EPOCH":"2026-03-03T18:00:16.430688","MEAN_MOTION":15.30208296,"ECCENTRICITY":0.0001188,"INCLINATION":53.1585,"RA_OF_ASC_NODE":234.5964,"ARG_OF_PERICENTER":47.9603,"MEAN_ANOMALY":312.1499,"EPHEMERIS_TYPE":0,"CLASSIFICATION_TYPE":"U","NORAD_CAT_ID":65344,"ELEMENT_SET_NO":999,"REV_AT_EPOCH":3020,"BSTAR":0.0011139709,"MEAN_MOTION_DOT":0.00032788,"MEAN_MOTION_DDOT":0},{"OBJECT_NAME":"STARLINK-34831","OBJECT_ID":"2025-189Y","EPOCH":"2026-03-03T18:56:19.785696","MEAN_MOTION":15.30205115,"ECCENTRICITY":0.0001536,"INCLINATION":53.1577,"RA_OF_ASC_NODE":234.1313,"ARG_OF_PERICENTER":45.2526,"MEAN_ANOMALY":314.8599,"EPHEMERIS_TYPE":0,"CLASSIFICATION_TYPE":"U","NORAD_CAT_ID":65345,"ELEMENT_SET_NO":999,"REV_AT_EPOCH":3021,"BSTAR":0.00048719,"MEAN_MOTION_DOT":0.000141,"MEAN_MOTION_DDOT":0}]
