STARLINK-34864          
1 65330U 25189H   26062.78384717  .00031695  00000+0  10777-2 0  9990
2 65330  53.1575 234.1008 0001404  91.4867 268.6294 15.30199031 30201
STARLINK-34918          
1 65331U 25189J   26062.78069788  .00033977  00000+0  11545-2 0  9998
2 65331  53.1572 234.0751 0001378 140.7471 219.3630 15.30187392 30149
STARLINK-33890          
1 65332U 25189K   26062.78173349  .00038070  00000+0  12905-2 0  9998
2 65332  53.1575 234.0789 0000986  90.7795 269.3319 15.30209906 29009
STARLINK-34602          
1 65333U 25189L   26062.77223101  .00036832  00000+0  12505-2 0  9990
2 65333  53.1565 234.0197 0001177  60.6255 299.4864 15.30175130 30206
STARLINK-34878          
1 65334U 25189M   26062.71114100  .00015936  00000+0  54897-3 0  9996
2 65334  53.1563 234.3605 0001811 157.0801 203.0281 15.30202765 30192
STARLINK-34874          
1 65335U 25189N   26062.75335368  .00027520  00000+0  93728-3 0  9990
2 65335  53.1584 234.6123 0001090  81.1999 278.9125 15.30219732 30198
STARLINK-34835          
1 65336U 25189P   26062.75652180  .00032830  00000+0  11153-2 0  9996
2 65336  53.1583 234.6394 0000961  73.7369 286.3737 15.30210375 30198
STARLINK-34854          
1 65337U 25189Q   26062.90918857  .00008641  00000+0  30350-3 0  9994
2 65337  53.1563 233.4587 0000952  73.3259 286.7846 15.30201659 30169
STARLINK-34751          
1 65338U 25189R   26062.78489916  .00021156  00000+0  72413-3 0  9992
2 65338  53.1578 234.1047 0001066  80.2368 279.8753 15.30211033 30202
STARLINK-34777          
1 65339U 25189S   26062.73435402  .00026258  00000+0  89604-3 0  9997
2 65339  53.1588 234.4993 0000846  87.5745 272.5352 15.30181620 30204
STARLINK-35020          
1 65340U 25189T   26062.70164553  .00032267  00000+0  10962-2 0  9999
2 65340  53.1576 234.2936 0000820 105.2458 254.8634 15.30217667 30149
STARLINK-35016          
1 65341U 25189U   26062.73224865  .00037197  00000+0  12616-2 0  9991
2 65341  53.1584 234.4825 0001078  62.2121 297.8989 15.30205069 30146
STARLINK-35092          
1 65342U 25189V   26063.16670139 -.00164441  00000+0 -56443-2 0  9990
2 65342  53.1566 232.1827 0001222 102.9759 277.1538 15.30306693  5658
STARLINK-34838          
1 65343U 25189W   26062.88820469  .00050410  00000+0  17017-2 0  9994
2 65343  53.1579 234.0320 0000988  59.0784 301.0314 15.30217887 30226
STARLINK-35088          
1 65344U 25189X   26062.75019017  .00032788  00000+0  11140-2 0  9999
2 65344  53.1585 234.5964 0001188  47.9603 312.1499 15.30208296 30201
STARLINK-34831          
1 65345U 25189Y   26062.78911789  .00014100  00000+0  48719-3 0  9991
2 65345  53.1577 234.1313 0001536  45.2526 314.8599 15.30205115 30217
